STARLINK-36288          
1 69164U 26111S   26167.58334491 -.02487119  00000+0 -39408-1 0  9994
2 69164  53.1596 155.1223 0001443  80.9790 111.6216 15.56659146  5451
STARLINK-37445          
1 69165U 26111T   26167.58334491 -.02503500  00000+0 -42744-1 0  9995
2 69165  53.1605 155.2055 0001205  65.8984  85.7470 15.54068847  5453
STARLINK-37491          
1 69166U 26111U   26167.58334491 -.02551103  00000+0 -32401-1 0  9997
2 69166  53.1585 154.9641 0001302  96.5244 174.0194 15.62498935  5455
STARLINK-37474          
1 69167U 26111V   26165.49285652  .00248272  00000+0  13871-2 0  9997
2 69167  53.1570 165.2100 0000913  76.2100 283.9024 15.78142856  3835
STARLINK-37469          
1 69168U 26111W   26167.27479738  .00070013  00000+0  12549-2 0  9993
2 69168  53.1591 157.8715 0000901  79.0890 281.0220 15.49326767  4091
STARLINK-37515          
1 69169U 26111X   26167.58334491 -.02525353  00000+0 -37001-1 0  9999
2 69169  53.1590 155.0007 0001419  90.5728 161.2068 15.58782544  5457
STARLINK-37437          
1 69170U 26111Y   26167.58334491 -.02520213  00000+0 -31965-1 0  9994
2 69170  53.1591 154.8679 0001048 101.2328 216.1794 15.62488082  5457
STARLINK-37392          
1 69171U 26111Z   26167.58334491 -.00725916  00000+0 -98926-2 0  9991
2 69171  53.1589 154.9463 0001507  91.5638 186.5769 15.59316640  5450
STARLINK-37472          
1 69172U 26111AA  26167.58334491  .00000675  00000+0  20181-4 0  9998
2 69172  53.1600 155.4045 0000638 130.5718 280.7885 15.49316160  5456
STARLINK-37461          
1 69173U 26111AB  26167.26668139  .00041506  00000+0  74917-3 0  9996
2 69173  53.1597 157.8148 0001752  77.3771 282.7433 15.49354122  4097
STARLINK-37333          
1 69174U 26111AC  26167.58334491 -.02581805  00000+0 -40342-1 0  9991
2 69174  53.1604 155.1434 0001327  73.3948 108.1232 15.56556785  5452
STARLINK-37385          
1 69175U 26111AD  26167.19449965  .00071013  00000+0  12715-2 0  9997
2 69175  53.1597 158.0776 0001212 108.2348 251.8793 15.49349443  4089
STARLINK-37414          
1 69176U 26111AE  26167.58334491 -.02523762  00000+0 -38459-1 0  9997
2 69176  53.1595 154.9612 0001414  98.6525 171.9416 15.57750948  5456
STRIX-7                 
1 69177U 26112A   26167.57355922  .00001716  00000+0  14804-3 0  9996
2 69177  44.9055 195.6725 0023220  43.5806 316.6895 15.01433402  3788
SHENZHOU-23 (SZ-23)     
1 69180U 26113A   26167.46514383  .00018830  00000+0  22290-3 0  9990
2 69180  41.4697 326.3961 0007507  71.1015 289.0637 15.60781847293119
STARLINK-37380          
1 69182U 26114A   26167.58619605  .00178428  00000+0  10070-2 0  9991
2 69182  53.1571 205.5093 0000945 109.6908 250.4216 15.78125067  4674
STARLINK-37089          
1 69183U 26114B   26167.58526288  .00140615  00000+0  79837-3 0  9990
2 69183  53.1574 205.5039 0001003 116.6482 243.4642 15.78112263  4678
STARLINK-37428          
1 69184U 26114C   26167.58385836  .00146301  00000+0  83145-3 0  9998
2 69184  53.1575 205.4936 0001200  65.5963 294.5184 15.78071637  4677
STARLINK-37237          
1 69185U 26114D   26167.58110454  .00128213  00000+0  72965-3 0  9991
2 69185  53.1573 205.4744 0000949  99.1388 260.9741 15.78103005  4677
STARLINK-37365          
1 69186U 26114E   26167.58141740  .00145527  00000+0  82573-3 0  9997
2 69186  53.1572 205.4770 0000868 114.5443 245.5669 15.78110062  4679
STARLINK-37209          
1 69187U 26114F   26167.58064526  .00148420  00000+0  84172-3 0  9996
2 69187  53.1573 205.4719 0001070 105.1250 254.9890 15.78111841  4678
STARLINK-37359          
1 69188U 26114G   26167.58020519  .00072230  00000+0  41606-3 0  9991
2 69188  53.1573 205.4690 0000974  84.8825 275.2308 15.78069278  4676
STARLINK-37440          
1 69189U 26114H   26167.58334491 -.00814177  00000+0 -59936-2 0  9999
2 69189  53.1590 204.8980 0000819  71.2950 216.4837 15.74646961  4713
STARLINK-37282          
1 69190U 26114J   26167.38388793 -.01834239  00000+0 -12634-1 0  9998
2 69190  53.1574 206.3750 0015678   7.3689 352.7560 15.76691982  4641
STARLINK-37422          
1 69191U 26114K   26166.41909786  .00276916  00000+0  13541-2 0  9991
2 69191  53.1579 211.0244 0001267 164.9839 195.1222 15.80999095  4492
STARLINK-37424          
1 69192U 26114L   26167.38378760 -.00172348  00000+0 -99793-3 0  9991
2 69192  53.1570 206.3737 0001030 321.7097  38.3851 15.78296609  4646
STARLINK-36666          
1 69193U 26114M   26167.36760878  .00172358  00000+0  85706-3 0  9993
2 69193  53.1571 206.2670 0001000  95.7392 264.3745 15.80933845  4642
STARLINK-37355          
1 69194U 26114N   26167.55651294  .00173451  00000+0  86202-3 0  9993
2 69194  53.1568 205.3105 0000952 131.5461 228.5644 15.80942631  4679
STARLINK-37166          
1 69195U 26114P   26167.55501305  .00152932  00000+0  76255-3 0  9999
2 69195  53.1568 205.3006 0000851 134.1441 225.9652 15.80934730  4676
