OBJECT_NAME,OBJECT_ID,EPOCH,MEAN_MOTION,ECCENTRICITY,INCLINATION,RA_OF_ASC_NODE,ARG_OF_PERICENTER,MEAN_ANOMALY,EPHEMERIS_TYPE,CLASSIFICATION_TYPE,NORAD_CAT_ID,ELEMENT_SET_NO,REV_AT_EPOCH,BSTAR,MEAN_MOTION_DOT,MEAN_MOTION_DDOT
STARLINK-36288,2026-111S,2026-06-16T14:00:01.000224,15.56659146,.00014438,53.1596,155.1223,80.9790,111.6216,0,U,69164,999,545,-.39407709E-1,-.2487119E-1,0
STARLINK-37445,2026-111T,2026-06-16T14:00:01.000224,15.54068847,.00012059,53.1605,155.2055,65.8984,85.7470,0,U,69165,999,545,-.42744145E-1,-.25035E-1,0
STARLINK-37491,2026-111U,2026-06-16T14:00:01.000224,15.62498935,.00013028,53.1585,154.9641,96.5244,174.0194,0,U,69166,999,545,-.32400698E-1,-.2551103E-1,0
STARLINK-37474,2026-111V,2026-06-14T11:49:42.803328,15.78142856,.00009138,53.1570,165.2100,76.2100,283.9024,0,U,69167,999,383,.13870743E-2,.248272E-2,0
STARLINK-37469,2026-111W,2026-06-16T06:35:42.493632,15.49326767,.0000901,53.1591,157.8715,79.0890,281.0220,0,U,69168,999,409,.12549E-2,.70013E-3,0
STARLINK-37515,2026-111X,2026-06-16T14:00:01.000224,15.58782544,.00014194,53.1590,155.0007,90.5728,161.2068,0,U,69169,999,545,-.37001116E-1,-.2525353E-1,0
STARLINK-37437,2026-111Y,2026-06-16T14:00:01.000224,15.62488082,.00010483,53.1591,154.8679,101.2328,216.1794,0,U,69170,999,545,-.319649E-1,-.2520213E-1,0
STARLINK-37392,2026-111Z,2026-06-16T14:00:01.000224,15.59316640,.00015071,53.1589,154.9463,91.5638,186.5769,0,U,69171,999,545,-.9892643E-2,-.725916E-2,0
STARLINK-37472,2026-111AA,2026-06-16T14:00:01.000224,15.49316160,.00006385,53.1600,155.4045,130.5718,280.7885,0,U,69172,999,545,.20180818E-4,.675E-5,0
STARLINK-37461,2026-111AB,2026-06-16T06:24:01.272096,15.49354122,.0001752,53.1597,157.8148,77.3771,282.7433,0,U,69173,999,409,.74917E-3,.41506E-3,0
STARLINK-37333,2026-111AC,2026-06-16T14:00:01.000224,15.56556785,.00013277,53.1604,155.1434,73.3948,108.1232,0,U,69174,999,545,-.40341914E-1,-.2581805E-1,0
STARLINK-37385,2026-111AD,2026-06-16T04:40:04.769760,15.49349443,.00012129,53.1597,158.0776,108.2348,251.8793,0,U,69175,999,408,.12714854E-2,.71013E-3,0
STARLINK-37414,2026-111AE,2026-06-16T14:00:01.000224,15.57750948,.00014145,53.1595,154.9612,98.6525,171.9416,0,U,69176,999,545,-.38458772E-1,-.2523762E-1,0
STRIX-7,2026-112A,2026-06-16T13:45:55.516608,15.01433402,.00232203,44.9055,195.6725,43.5806,316.6895,0,U,69177,999,378,.14803966E-3,.1716E-4,0
SHENZHOU-23 (SZ-23),2026-113A,2026-06-16T11:09:48.426912,15.60781847,.0007507,41.4697,326.3961,71.1015,289.0637,0,U,69180,999,29311,.22289539E-3,.1883E-3,0
STARLINK-37380,2026-114A,2026-06-16T14:04:07.338720,15.78125067,.00009457,53.1571,205.5093,109.6908,250.4216,0,U,69182,999,467,.1006975E-2,.178428E-2,0
STARLINK-37089,2026-114B,2026-06-16T14:02:46.712832,15.78112263,.00010033,53.1574,205.5039,116.6482,243.4642,0,U,69183,999,467,.79837101E-3,.140615E-2,0
STARLINK-37428,2026-114C,2026-06-16T14:00:45.362304,15.78071637,.00012005,53.1575,205.4936,65.5963,294.5184,0,U,69184,999,467,.83145237E-3,.146301E-2,0
STARLINK-37237,2026-114D,2026-06-16T13:56:47.432256,15.78103005,.00009491,53.1573,205.4744,99.1388,260.9741,0,U,69185,999,467,.72965425E-3,.128213E-2,0
STARLINK-37365,2026-114E,2026-06-16T13:57:14.463360,15.78110062,.0000868,53.1572,205.4770,114.5443,245.5669,0,U,69186,999,467,.82573078E-3,.145527E-2,0
STARLINK-37209,2026-114F,2026-06-16T13:56:07.750464,15.78111841,.00010709,53.1573,205.4719,105.1250,254.9890,0,U,69187,999,467,.84171679E-3,.14842E-2,0
STARLINK-37359,2026-114G,2026-06-16T13:55:29.728416,15.78069278,.00009741,53.1573,205.4690,84.8825,275.2308,0,U,69188,999,467,.41605935E-3,.7223E-3,0
STARLINK-37440,2026-114H,2026-06-16T14:00:01.000224,15.74646961,.00008197,53.1590,204.8980,71.2950,216.4837,0,U,69189,999,471,-.59936107E-2,-.814177E-2,0
STARLINK-37282,2026-114J,2026-06-16T09:12:47.917152,15.76691982,.00156788,53.1574,206.3750,7.3689,352.7560,0,U,69190,999,464,-.12634012E-1,-.1834239E-1,0
STARLINK-37422,2026-114K,2026-06-15T10:03:30.055104,15.80999095,.00012671,53.1579,211.0244,164.9839,195.1222,0,U,69191,999,449,.13541344E-2,.276916E-2,0
STARLINK-37424,2026-114L,2026-06-16T09:12:39.248640,15.78296609,.00010302,53.1570,206.3737,321.7097,38.3851,0,U,69192,999,464,-.99793486E-3,-.172348E-2,0
STARLINK-36666,2026-114M,2026-06-16T08:49:21.398592,15.80933845,.00010009,53.1571,206.2670,95.7392,264.3745,0,U,69193,999,464,.85706442E-3,.172358E-2,0
STARLINK-37355,2026-114N,2026-06-16T13:21:22.718016,15.80942631,.00009522,53.1568,205.3105,131.5461,228.5644,0,U,69194,999,467,.86201504E-3,.173451E-2,0
STARLINK-37166,2026-114P,2026-06-16T13:19:13.127520,15.80934730,.00008517,53.1568,205.3006,134.1441,225.9652,0,U,69195,999,467,.76254826E-3,.152932E-2,0
